[{"OBJECT_NAME":"STARLINK-31030","OBJECT_ID":"2023-192M","EPOCH":"2026-02-05T18:03:18.916992","MEAN_MOTION":15.30223473,"ECCENTRICITY":0.0001005,"INCLINATION":53.1624,"RA_OF_ASC_NODE":211.2233,"ARG_OF_PERICENTER":88.8368,"MEAN_ANOMALY":271.2748,"EPHEMERIS_TYPE":0,"CLASSIFICATION_TYPE":"U","NORAD_CAT_ID":58542,"ELEMENT_SET_NO":999,"REV_AT_EPOCH":12109,"BSTAR":-0.00014503,"MEAN_MOTION_DOT":-4.655e-5,"MEAN_MOTION_DDOT":0},{"OBJECT_NAME":"STARLINK-31049","OBJECT_ID":"2023-192N","EPOCH":"2026-02-05T18:07:51.545280","MEAN_MOTION":15.30200493,"ECCENTRICITY":0.0001029,"INCLINATION":53.1593,"RA_OF_ASC_NODE":211.2443,"ARG_OF_PERICENTER":80.4909,"MEAN_ANOMALY":279.6208,"EPHEMERIS_TYPE":0,"CLASSIFICATION_TYPE":"U","NORAD_CAT_ID":58543,"ELEMENT_SET_NO":999,"REV_AT_EPOCH":12109,"BSTAR":3.6835e-5,"MEAN_MOTION_DOT":7.32e-6,"MEAN_MOTION_DDOT":0},{"OBJECT_NAME":"STARLINK-31048","OBJECT_ID":"2023-192P","EPOCH":"2026-02-05T20:19:43.688352","MEAN_MOTION":15.30197621,"ECCENTRICITY":8.19e-5,"INCLINATION":53.1576,"RA_OF_ASC_NODE":210.3504,"ARG_OF_PERICENTER":122.3852,"MEAN_ANOMALY":237.7228,"EPHEMERIS_TYPE":0,"CLASSIFICATION_TYPE":"U","NORAD_CAT_ID":58544,"ELEMENT_SET_NO":999,"REV_AT_EPOCH":12111,"BSTAR":5.8976e-5,"MEAN_MOTION_DOT":1.388e-5,"MEAN_MOTION_DDOT":0},{"OBJECT_NAME":"STARLINK-31057","OBJECT_ID":"2023-192Q","EPOCH":"2026-02-05T16:38:21.686784","MEAN_MOTION":15.30202511,"ECCENTRICITY":0.0001021,"INCLINATION":53.1592,"RA_OF_ASC_NODE":211.555,"ARG_OF_PERICENTER":93.9206,"MEAN_ANOMALY":266.1912,"EPHEMERIS_TYPE":0,"CLASSIFICATION_TYPE":"U","NORAD_CAT_ID":58545,"ELEMENT_SET_NO":999,"REV_AT_EPOCH":12108,"BSTAR":9.842e-5,"MEAN_MOTION_DOT":2.557e-5,"MEAN_MOTION_DDOT":0},{"OBJECT_NAME":"STARLINK-31050","OBJECT_ID":"2023-192R","EPOCH":"2026-02-05T18:16:58.724256","MEAN_MOTION":15.30199215,"ECCENTRICITY":8.77e-5,"INCLINATION":53.1587,"RA_OF_ASC_NODE":211.2714,"ARG_OF_PERICENTER":79.9628,"MEAN_ANOMALY":280.1472,"EPHEMERIS_TYPE":0,"CLASSIFICATION_TYPE":"U","NORAD_CAT_ID":58546,"ELEMENT_SET_NO":999,"REV_AT_EPOCH":12109,"BSTAR":7.6866e-6,"MEAN_MOTION_DOT":-1.31e-6,"MEAN_MOTION_DDOT":0},{"OBJECT_NAME":"STARLINK-31063","OBJECT_ID":"2023-192S","EPOCH":"2026-02-05T20:04:40.313280","MEAN_MOTION":15.30185975,"ECCENTRICITY":0.0001135,"INCLINATION":53.1617,"RA_OF_ASC_NODE":200.355,"ARG_OF_PERICENTER":94.4223,"MEAN_ANOMALY":265.6908,"EPHEMERIS_TYPE":0,"CLASSIFICATION_TYPE":"U","NORAD_CAT_ID":58547,"ELEMENT_SET_NO":999,"REV_AT_EPOCH":12125,"BSTAR":1.3883e-5,"MEAN_MOTION_DOT":5.2e-7,"MEAN_MOTION_DDOT":0},{"OBJECT_NAME":"STARLINK-31016","OBJECT_ID":"2023-192T","EPOCH":"2026-02-05T18:50:15.010080","MEAN_MOTION":15.30178993,"ECCENTRICITY":0.0001273,"INCLINATION":53.158,"RA_OF_ASC_NODE":210.6722,"ARG_OF_PERICENTER":78.0556,"MEAN_ANOMALY":282.0588,"EPHEMERIS_TYPE":0,"CLASSIFICATION_TYPE":"U","NORAD_CAT_ID":58548,"ELEMENT_SET_NO":999,"REV_AT_EPOCH":12110,"BSTAR":-4.7767e-5,"MEAN_MOTION_DOT":-1.773e-5,"MEAN_MOTION_DDOT":0},{"OBJECT_NAME":"STARLINK-31053","OBJECT_ID":"2023-192U","EPOCH":"2026-02-05T12:05:19.560768","MEAN_MOTION":15.30202809,"ECCENTRICITY":2.894e-5,"INCLINATION":53.1624,"RA_OF_ASC_NODE":212.5135,"ARG_OF_PERICENTER":10.4815,"MEAN_ANOMALY":349.6192,"EPHEMERIS_TYPE":0,"CLASSIFICATION_TYPE":"U","NORAD_CAT_ID":58549,"ELEMENT_SET_NO":999,"REV_AT_EPOCH":12105,"BSTAR":-3.725171e-6,"MEAN_MOTION_DOT":-4.69e-6,"MEAN_MOTION_DDOT":0},{"OBJECT_NAME":"STARLINK-31056","OBJECT_ID":"2023-192V","EPOCH":"2026-02-05T17:20:45.006432","MEAN_MOTION":15.30198431,"ECCENTRICITY":9.91e-5,"INCLINATION":53.1586,"RA_OF_ASC_NODE":211.0422,"ARG_OF_PERICENTER":98.7681,"MEAN_ANOMALY":261.3432,"EPHEMERIS_TYPE":0,"CLASSIFICATION_TYPE":"U","NORAD_CAT_ID":58550,"ELEMENT_SET_NO":999,"REV_AT_EPOCH":12109,"BSTAR":8.6709e-5,"MEAN_MOTION_DOT":2.21e-5,"MEAN_MOTION_DDOT":0},{"OBJECT_NAME":"STARLINK-30999","OBJECT_ID":"2023-192W","EPOCH":"2026-02-05T16:23:16.290816","MEAN_MOTION":15.30197294,"ECCENTRICITY":0.0001087,"INCLINATION":53.1584,"RA_OF_ASC_NODE":201.443,"ARG_OF_PERICENTER":92.9775,"MEAN_ANOMALY":267.135,"EPHEMERIS_TYPE":0,"CLASSIFICATION_TYPE":"U","NORAD_CAT_ID":58551,"ELEMENT_SET_NO":999,"REV_AT_EPOCH":12122,"BSTAR":5.4577e-5,"MEAN_MOTION_DOT":1.258e-5,"MEAN_MOTION_DDOT":0},{"OBJECT_NAME":"STARLINK-31046","OBJECT_ID":"2023-192X","EPOCH":"2026-02-05T18:32:10.722912","MEAN_MOTION":15.30191769,"ECCENTRICITY":0.0001137,"INCLINATION":53.1595,"RA_OF_ASC_NODE":211.3471,"ARG_OF_PERICENTER":98.3379,"MEAN_ANOMALY":261.7751,"EPHEMERIS_TYPE":0,"CLASSIFICATION_TYPE":"U","NORAD_CAT_ID":58552,"ELEMENT_SET_NO":999,"REV_AT_EPOCH":12109,"BSTAR":1.9804e-5,"MEAN_MOTION_DOT":2.27e-6,"MEAN_MOTION_DDOT":0},{"OBJECT_NAME":"STARLINK-31044","OBJECT_ID":"2023-200A","EPOCH":"2026-02-05T05:11:16.514304","MEAN_MOTION":15.02535366,"ECCENTRICITY":0.0001399,"INCLINATION":43.0052,"RA_OF_ASC_NODE":346.3327,"ARG_OF_PERICENTER":260.1031,"MEAN_ANOMALY":99.9653,"EPHEMERIS_TYPE":0,"CLASSIFICATION_TYPE":"U","NORAD_CAT_ID":58589,"ELEMENT_SET_NO":999,"REV_AT_EPOCH":11871,"BSTAR":4.2803e-5,"MEAN_MOTION_DOT":3.75e-6,"MEAN_MOTION_DDOT":0},{"OBJECT_NAME":"STARLINK-31062","OBJECT_ID":"2023-200B","EPOCH":"2026-02-05T05:37:21.368640","MEAN_MOTION":15.02536717,"ECCENTRICITY":0.0001509,"INCLINATION":43.004,"RA_OF_ASC_NODE":348.1916,"ARG_OF_PERICENTER":252.2209,"MEAN_ANOMALY":107.8469,"EPHEMERIS_TYPE":0,"CLASSIFICATION_TYPE":"U","NORAD_CAT_ID":58590,"ELEMENT_SET_NO":999,"REV_AT_EPOCH":11869,"BSTAR":4.1725e-5,"MEAN_MOTION_DOT":3.6e-6,"MEAN_MOTION_DDOT":0},{"OBJECT_NAME":"STARLINK-31096","OBJECT_ID":"2023-200D","EPOCH":"2026-02-05T06:17:09.978720","MEAN_MOTION":15.02534039,"ECCENTRICITY":0.0001003,"INCLINATION":43.0044,"RA_OF_ASC_NODE":347.5452,"ARG_OF_PERICENTER":280.099,"MEAN_ANOMALY":79.9739,"EPHEMERIS_TYPE":0,"CLASSIFICATION_TYPE":"U","NORAD_CAT_ID":58592,"ELEMENT_SET_NO":999,"REV_AT_EPOCH":11870,"BSTAR":-1.1447e-6,"MEAN_MOTION_DOT":-2.19e-6,"MEAN_MOTION_DDOT":0},{"OBJECT_NAME":"STARLINK-31094","OBJECT_ID":"2023-200E","EPOCH":"2026-02-05T06:32:47.681376","MEAN_MOTION":15.02536645,"ECCENTRICITY":9.184e-5,"INCLINATION":43.0045,"RA_OF_ASC_NODE":346.7729,"ARG_OF_PERICENTER":280.9212,"MEAN_ANOMALY":79.1527,"EPHEMERIS_TYPE":0,"CLASSIFICATION_TYPE":"U","NORAD_CAT_ID":58593,"ELEMENT_SET_NO":999,"REV_AT_EPOCH":11871,"BSTAR":2.3029503e-5,"MEAN_MOTION_DOT":1.08e-6,"MEAN_MOTION_DDOT":0},{"OBJECT_NAME":"STARLINK-31075","OBJECT_ID":"2023-200F","EPOCH":"2026-02-05T20:35:09.086784","MEAN_MOTION":15.02570582,"ECCENTRICITY":0.0001119,"INCLINATION":43.0033,"RA_OF_ASC_NODE":343.4146,"ARG_OF_PERICENTER":263.5842,"MEAN_ANOMALY":96.4872,"EPHEMERIS_TYPE":0,"CLASSIFICATION_TYPE":"U","NORAD_CAT_ID":58594,"ELEMENT_SET_NO":999,"REV_AT_EPOCH":11880,"BSTAR":-0.00039511,"MEAN_MOTION_DOT":-5.542e-5,"MEAN_MOTION_DDOT":0},{"OBJECT_NAME":"STARLINK-30857","OBJECT_ID":"2023-200G","EPOCH":"2026-02-05T06:18:25.437888","MEAN_MOTION":15.02533787,"ECCENTRICITY":9.34e-5,"INCLINATION":43.0028,"RA_OF_ASC_NODE":346.6986,"ARG_OF_PERICENTER":285.6065,"MEAN_ANOMALY":74.4674,"EPHEMERIS_TYPE":0,"CLASSIFICATION_TYPE":"U","NORAD_CAT_ID":58595,"ELEMENT_SET_NO":999,"REV_AT_EPOCH":11871,"BSTAR":0.00023638,"MEAN_MOTION_DOT":2.991e-5,"MEAN_MOTION_DDOT":0}]
