STARLINK-31030          
1 58542U 23192M   26036.75230228 -.00004655  00000+0 -14503-3 0  9994
2 58542  53.1624 211.2233 0001005  88.8368 271.2748 15.30223473121092
STARLINK-31049          
1 58543U 23192N   26036.75545770  .00000732  00000+0  36835-4 0  9999
2 58543  53.1593 211.2443 0001029  80.4909 279.6208 15.30200493121096
STARLINK-31048          
1 58544U 23192P   26036.84703343  .00001388  00000+0  58976-4 0  9990
2 58544  53.1576 210.3504 0000819 122.3852 237.7228 15.30197621121113
STARLINK-31057          
1 58545U 23192Q   26036.69330656  .00002557  00000+0  98420-4 0  9994
2 58545  53.1592 211.5550 0001021  93.9206 266.1912 15.30202511121085
STARLINK-31050          
1 58546U 23192R   26036.76179079 -.00000131  00000+0  76866-5 0  9991
2 58546  53.1587 211.2714 0000877  79.9628 280.1472 15.30199215121093
STARLINK-31063          
1 58547U 23192S   26036.83657770  .00000052  00000+0  13883-4 0  9999
2 58547  53.1617 200.3550 0001135  94.4223 265.6908 15.30185975121254
STARLINK-31016          
1 58548U 23192T   26036.78489595 -.00001773  00000+0 -47767-4 0  9993
2 58548  53.1580 210.6722 0001273  78.0556 282.0588 15.30178993121102
STARLINK-31053          
1 58549U 23192U   26036.50369862 -.00000469  00000+0 -37252-5 0  9998
2 58549  53.1624 212.5135 0000289  10.4815 349.6192 15.30202809121054
STARLINK-31056          
1 58550U 23192V   26036.72274313  .00002210  00000+0  86709-4 0  9994
2 58550  53.1586 211.0422 0000991  98.7681 261.3432 15.30198431121092
STARLINK-30999          
1 58551U 23192W   26036.68282744  .00001258  00000+0  54577-4 0  9996
2 58551  53.1584 201.4430 0001087  92.9775 267.1350 15.30197294121224
STARLINK-31046          
1 58552U 23192X   26036.77234633  .00000227  00000+0  19804-4 0  9990
2 58552  53.1595 211.3471 0001137  98.3379 261.7751 15.30191769121099
STARLINK-31044          
1 58589U 23200A   26036.21616336  .00000375  00000+0  42803-4 0  9992
2 58589  43.0052 346.3327 0001399 260.1031  99.9653 15.02535366118719
STARLINK-31062          
1 58590U 23200B   26036.23427510  .00000360  00000+0  41725-4 0  9996
2 58590  43.0040 348.1916 0001509 252.2209 107.8469 15.02536717118696
STARLINK-31096          
1 58592U 23200D   26036.26192105 -.00000219  00000+0 -11447-5 0  9994
2 58592  43.0044 347.5452 0001003 280.0990  79.9739 15.02534039118701
STARLINK-31094          
1 58593U 23200E   26036.27277409  .00000108  00000+0  23030-4 0  9992
2 58593  43.0045 346.7729 0000918 280.9212  79.1527 15.02536645118714
STARLINK-31075          
1 58594U 23200F   26036.85774406 -.00005542  00000+0 -39511-3 0  9995
2 58594  43.0033 343.4146 0001119 263.5842  96.4872 15.02570582118802
STARLINK-30857          
1 58595U 23200G   26036.26279442  .00002991  00000+0  23638-3 0  9997
2 58595  43.0028 346.6986 0000934 285.6065  74.4674 15.02533787118712
